{"type": "FeatureCollection", "features": [ {"type": "Feature", "properties": {"norad_id": 30530, "name": "FENGYUN 1C DEB", "group": "fengyun-1c-debris", "lat": 44.66834447078243, "lon": 27.038998365443234, "alt_km": 728.9268744524061, "timestamp": "2025-12-23T07:45:09.681363+00:00", "meta": {"OBJECT_NAME": "FENGYUN 1C DEB", "OBJECT_ID": "1999-025AJU", "EPOCH": "2025-12-21T21:15:30.528000", "MEAN_MOTION": 14.36796438, "ECCENTRICITY": 0.01004141, "INCLINATION": 98.3951, "RA_OF_ASC_NODE": 34.031, "ARG_OF_PERICENTER": 109.7404, "MEAN_ANOMALY": 66.7329, "EPHEMERIS_TYPE": 0, "CLASSIFICATION_TYPE": "U", "NORAD_CAT_ID": 30530, "ELEMENT_SET_NO": 999, "REV_AT_EPOCH": 98916, "BSTAR": 0.00020933439, "MEAN_MOTION_DOT": 6.11e-06, "MEAN_MOTION_DDOT": 0}, "tle": {"line1": "1 30530U 99025AJU 25355.88577000  .00000611  00000+0  20933-3 0  9998", "line2": "2 30530  98.3951  34.0310 0100414 109.7404  66.7329 14.36796438989161"}}, "geometry": {"type": "Point", "coordinates": [27.038998365443234, 44.66834447078243]}}, {"type": "Feature", "properties": {"norad_id": 30531, "name": "FENGYUN 1C DEB", "group": "fengyun-1c-debris", "lat": -28.960964477599255, "lon": -164.46033227446327, "alt_km": 708.5394746540596, "timestamp": "2025-12-23T07:45:09.681377+00:00", "meta": {"OBJECT_NAME": "FENGYUN 1C DEB", "OBJECT_ID": "1999-025AJV", "EPOCH": "2025-12-21T06:37:22.804896", "MEAN_MOTION": 14.6217341, "ECCENTRICITY": 0.0026846, "INCLINATION": 102.3094, "RA_OF_ASC_NODE": 185.5623, "ARG_OF_PERICENTER": 182.9968, "MEAN_ANOMALY": 177.106, "EPHEMERIS_TYPE": 0, "CLASSIFICATION_TYPE": "U", "NORAD_CAT_ID": 30531, "ELEMENT_SET_NO": 999, "REV_AT_EPOCH": 97820, "BSTAR": 0.003253, "MEAN_MOTION_DOT": 0.00016415, "MEAN_MOTION_DDOT": 0}, "tle": {"line1": "1 30531U 99025AJV 25355.27595839  .00016415  00000+0  32530-2 0  9996", "line2": "2 30531 102.3094 185.5623 0026846 182.9968 177.1060 14.62173410978209"}}, "geometry": {"type": "Point", "coordinates": [-164.46033227446327, -28.960964477599255]}}, {"type": "Feature", "properties": {"norad_id": 30532, "name": "FENGYUN 1C DEB", "group": "fengyun-1c-debris", "lat": 72.70388542045266, "lon": -115.01598910310945, "alt_km": 467.7663387170951, "timestamp": "2025-12-23T07:45:09.681387+00:00", "meta": {"OBJECT_NAME": "FENGYUN 1C DEB", "OBJECT_ID": "1999-025AJW", "EPOCH": "2025-12-22T09:20:46.232736", "MEAN_MOTION": 15.31741408, "ECCENTRICITY": 0.00210939, "INCLINATION": 96.9606, "RA_OF_ASC_NODE": 41.0058, "ARG_OF_PERICENTER": 225.5619, "MEAN_ANOMALY": 134.3898, "EPHEMERIS_TYPE": 0, "CLASSIFICATION_TYPE": "U", "NORAD_CAT_ID": 30532, "ELEMENT_SET_NO": 999, "REV_AT_EPOCH": 97835, "BSTAR": 0.013490382, "MEAN_MOTION_DOT": 0.00439979, "MEAN_MOTION_DDOT": 0}, "tle": {"line1": "1 30532U 99025AJW 25356.38942399  .00439979  00000+0  13490-1 0  9994", "line2": "2 30532  96.9606  41.0058 0021093 225.5619 134.3898 15.31741408978356"}}, "geometry": {"type": "Point", "coordinates": [-115.01598910310945, 72.70388542045266]}}, {"type": "Feature", "properties": {"norad_id": 30533, "name": "FENGYUN 1C DEB", "group": "fengyun-1c-debris", "lat": -7.56265695239217, "lon": 127.9013017299849, "alt_km": 749.0000844041124, "timestamp": "2025-12-23T07:45:09.681398+00:00", "meta": {"OBJECT_NAME": "FENGYUN 1C DEB", "OBJECT_ID": "1999-025AJX", "EPOCH": "2025-12-22T20:48:06.492384", "MEAN_MOTION": 14.54055402, "ECCENTRICITY": 0.00814562, "INCLINATION": 98.8346, "RA_OF_ASC_NODE": 126.2368, "ARG_OF_PERICENTER": 118.7364, "MEAN_ANOMALY": 7.3918, "EPHEMERIS_TYPE": 0, "CLASSIFICATION_TYPE": "U", "NORAD_CAT_ID": 30533, "ELEMENT_SET_NO": 999, "REV_AT_EPOCH": 97968, "BSTAR": 0.0031957763, "MEAN_MOTION_DOT": 0.00014069, "MEAN_MOTION_DDOT": 0}, "tle": {"line1": "1 30533U 99025AJX 25356.86674181  .00014069  00000+0  31958-2 0  9998", "line2": "2 30533  98.8346 126.2368 0081456 118.7364   7.3918 14.54055402979683"}}, "geometry": {"type": "Point", "coordinates": [127.9013017299849, -7.56265695239217]}}, {"type": "Feature", "properties": {"norad_id": 30539, "name": "FENGYUN 1C DEB", "group": "fengyun-1c-debris", "lat": 44.9461273636978, "lon": 167.4222498673953, "alt_km": 729.8491125888122, "timestamp": "2025-12-23T07:45:09.681407+00:00", "meta": {"OBJECT_NAME": "FENGYUN 1C DEB", "OBJECT_ID": "1999-025AKD", "EPOCH": "2025-12-22T21:13:37.514208", "MEAN_MOTION": 14.55459081, "ECCENTRICITY": 0.01152934, "INCLINATION": 98.8812, "RA_OF_ASC_NODE": 337.9773, "ARG_OF_PERICENTER": 244.6832, "MEAN_ANOMALY": 114.2385, "EPHEMERIS_TYPE": 0, "CLASSIFICATION_TYPE": "U", "NORAD_CAT_ID": 30539, "ELEMENT_SET_NO": 999, "REV_AT_EPOCH": 99513, "BSTAR": 0.0006029658, "MEAN_MOTION_DOT": 2.81e-05, "MEAN_MOTION_DDOT": 0}, "tle": {"line1": "1 30539U 99025AKD 25356.88446197  .00002810  00000+0  60297-3 0  9990", "line2": "2 30539  98.8812 337.9773 0115293 244.6832 114.2385 14.55459081995130"}}, "geometry": {"type": "Point", "coordinates": [167.4222498673953, 44.9461273636978]}}, {"type": "Feature", "properties": {"norad_id": 30540, "name": "FENGYUN 1C DEB", "group": "fengyun-1c-debris", "lat": -5.189907364046936, "lon": -74.89673359158812, "alt_km": 820.1922856021974, "timestamp": "2025-12-23T07:45:09.681418+00:00", "meta": {"OBJECT_NAME": "FENGYUN 1C DEB", "OBJECT_ID": "1999-025AKE", "EPOCH": "2025-12-21T06:31:41.312352", "MEAN_MOTION": 14.32352224, "ECCENTRICITY": 0.0050766, "INCLINATION": 98.8791, "RA_OF_ASC_NODE": 103.8175, "ARG_OF_PERICENTER": 36.6295, "MEAN_ANOMALY": 18.1633, "EPHEMERIS_TYPE": 0, "CLASSIFICATION_TYPE": "U", "NORAD_CAT_ID": 30540, "ELEMENT_SET_NO": 999, "REV_AT_EPOCH": 97408, "BSTAR": 0.0013384, "MEAN_MOTION_DOT": 3.624e-05, "MEAN_MOTION_DDOT": 0}, "tle": {"line1": "1 30540U 99025AKE 25355.27200593  .00003624  00000+0  13384-2 0  9990", "line2": "2 30540  98.8791 103.8175 0050766  36.6295  18.1633 14.32352224974084"}}, "geometry": {"type": "Point", "coordinates": [-74.89673359158812, -5.189907364046936]}}, {"type": "Feature", "properties": {"norad_id": 30541, "name": "FENGYUN 1C DEB", "group": "fengyun-1c-debris", "lat": -45.01991811907107, "lon": -145.0759444911937, "alt_km": 834.1723187546722, "timestamp": "2025-12-23T07:45:09.681428+00:00", "meta": {"OBJECT_NAME": "FENGYUN 1C DEB", "OBJECT_ID": "1999-025AKF", "EPOCH": "2025-12-20T19:38:13.351776", "MEAN_MOTION": 14.23088463, "ECCENTRICITY": 0.0017777, "INCLINATION": 98.6936, "RA_OF_ASC_NODE": 41.2585, "ARG_OF_PERICENTER": 62.8985, "MEAN_ANOMALY": 297.4004, "EPHEMERIS_TYPE": 0, "CLASSIFICATION_TYPE": "U", "NORAD_CAT_ID": 30541, "ELEMENT_SET_NO": 999, "REV_AT_EPOCH": 97442, "BSTAR": 0.00080306, "MEAN_MOTION_DOT": 1.771e-05, "MEAN_MOTION_DDOT": 0}, "tle": {"line1": "1 30541U 99025AKF 25354.81821009  .00001771  00000+0  80306-3 0  9991", "line2": "2 30541  98.6936  41.2585 0017777  62.8985 297.4004 14.23088463974429"}}, "geometry": {"type": "Point", "coordinates": [-145.0759444911937, -45.01991811907107]}}, {"type": "Feature", "properties": {"norad_id": 30542, "name": "FENGYUN 1C DEB", "group": "fengyun-1c-debris", "lat": -19.6918712511669, "lon": -157.40264119230017, "alt_km": 879.4968877601423, "timestamp": "2025-12-23T07:45:09.681438+00:00", "meta": {"OBJECT_NAME": "FENGYUN 1C DEB", "OBJECT_ID": "1999-025AKG", "EPOCH": "2025-12-21T22:56:02.283072", "MEAN_MOTION": 14.06978758, "ECCENTRICITY": 0.0027175, "INCLINATION": 98.786, "RA_OF_ASC_NODE": 24.4418, "ARG_OF_PERICENTER": 307.6212, "MEAN_ANOMALY": 170.0608, "EPHEMERIS_TYPE": 0, "CLASSIFICATION_TYPE": "U", "NORAD_CAT_ID": 30542, "ELEMENT_SET_NO": 999, "REV_AT_EPOCH": 97048, "BSTAR": 0.00021056252, "MEAN_MOTION_DOT": 3.09e-06, "MEAN_MOTION_DDOT": 0}, "tle": {"line1": "1 30542U 99025AKG 25355.95558198  .00000309  00000+0  21056-3 0  9997", "line2": "2 30542  98.7860  24.4418 0027175 307.6212 170.0608 14.06978758970485"}}, "geometry": {"type": "Point", "coordinates": [-157.40264119230017, -19.6918712511669]}}, {"type": "Feature", "properties": {"norad_id": 30543, "name": "FENGYUN 1C DEB", "group": "fengyun-1c-debris", "lat": 26.119007921132393, "lon": -169.03846622605565, "alt_km": 924.7584130032628, "timestamp": "2025-12-23T07:45:09.681449+00:00", "meta": {"OBJECT_NAME": "FENGYUN 1C DEB", "OBJECT_ID": "1999-025AKH", "EPOCH": "2025-12-22T19:54:19.015200", "MEAN_MOTION": 14.03750113, "ECCENTRICITY": 0.00721814, "INCLINATION": 98.8329, "RA_OF_ASC_NODE": 6.1095, "ARG_OF_PERICENTER": 5.6263, "MEAN_ANOMALY": 174.1509, "EPHEMERIS_TYPE": 0, "CLASSIFICATION_TYPE": "U", "NORAD_CAT_ID": 30543, "ELEMENT_SET_NO": 999, "REV_AT_EPOCH": 96646, "BSTAR": 0.00013970702, "MEAN_MOTION_DOT": 1.82e-06, "MEAN_MOTION_DDOT": 0}, "tle": {"line1": "1 30543U 99025AKH 25356.82938675  .00000182  00000+0  13971-3 0  9993", "line2": "2 30543  98.8329   6.1095 0072181   5.6263 174.1509 14.03750113966461"}}, "geometry": {"type": "Point", "coordinates": [-169.03846622605565, 26.119007921132393]}}, {"type": "Feature", "properties": {"norad_id": 30545, "name": "FENGYUN 1C DEB", "group": "fengyun-1c-debris", "lat": -37.91113190912156, "lon": 20.97282306459075, "alt_km": 1391.5077340022972, "timestamp": "2025-12-23T07:45:09.681482+00:00", "meta": {"OBJECT_NAME": "FENGYUN 1C DEB", "OBJECT_ID": "1999-025AKK", "EPOCH": "2025-12-16T01:55:01.765920", "MEAN_MOTION": 13.20785031, "ECCENTRICITY": 0.04726799, "INCLINATION": 98.9986, "RA_OF_ASC_NODE": 201.8152, "ARG_OF_PERICENTER": 2.8282, "MEAN_ANOMALY": 357.5348, "EPHEMERIS_TYPE": 0, "CLASSIFICATION_TYPE": "U", "NORAD_CAT_ID": 30545, "ELEMENT_SET_NO": 999, "REV_AT_EPOCH": 90974, "BSTAR": 0.00057440201, "MEAN_MOTION_DOT": 3.84e-06, "MEAN_MOTION_DDOT": 0}, "tle": {"line1": "1 30545U 99025AKK 25350.07988155  .00000384  00000+0  57440-3 0  9997", "line2": "2 30545  98.9986 201.8152 0472679   2.8282 357.5348 13.20785031909748"}}, "geometry": {"type": "Point", "coordinates": [20.97282306459075, -37.91113190912156]}}]}